    CK12T040  2012 10 10.7771  1.948693  0.983584  219.7840   99.4139   24.1416  20170616  13.5  4.0  C/2012 T4 (McNaught)                                     MPC 84023
    CK12T050  2013 02 24.1513  0.324166  1.000405  318.2366  230.2440   72.2659  20170616  13.0  4.0  C/2012 T5 (Bressi)                                       MPC 84023
    CK12T060  2012 08 23.5595  1.773152  0.873980  197.9601  186.1248   33.3275  20170616  15.0  4.0  C/2012 T6 (Kowalski)                                     MPC 82720
    PK12T08K  2013 05  5.0734  3.044939  0.268209  126.6545  289.2116    6.2911  20170616  13.0  4.0  P/2012 TK8 (Tenagra)                                     MPC 87914
    CK12U010  2014 07  5.1213  5.271653  0.997655   70.2125   26.9650   56.3500  20170616   7.5  4.0  C/2012 U1 (PANSTARRS)                                    MPC 95208
    PK12U020  2012 11 12.9550  3.593514  0.498026  228.6313  185.2383   10.7395  20170616  12.5  4.0  P/2012 U2 (PANSTARRS)                                    MPC 82720
    PK12U27S  2013 02  5.8447  1.820412  0.647672    1.1058   49.1757   39.3232  20170616  13.5  4.0  P/2012 US27 (Siding Spring)                              MPC 84024
    CK12V010  2013 07 20.2433  2.088372  0.998439  123.1714   85.3357  157.8346  20170616  12.0  4.0  C/2012 V1 (PANSTARRS)                                    MPC 84932
    CK12V020  2013 08 14.9316  1.465544  0.997650  217.4748  262.1668   67.2205  20170616   9.0  4.0  C/2012 V2 (LINEAR)                                       MPC 88695
    PK12W34A  2013 01 21.0362  3.175164  0.336502  352.7933   94.5106    6.1205  20170616  13.5  4.0  P/2012 WA34 (Lemmon-PANSTARRS)                           MPC 82721
    CK12X010  2014 02 21.9908  1.596713  0.990077  132.1433  113.0483   44.3554  20170616   4.8  3.6  C/2012 X1 (LINEAR)                                       MPC 97494
    CK12X020  2013 03 31.1098  4.759297  0.768599  215.7745  271.0555   34.1113  20170616   9.0  4.0  C/2012 X2 (PANSTARRS)                                    MPC 88327
    CK12Y010  2013 01 16.6811  2.028483  0.946263  269.1071  193.1392   20.9026  20170616  15.0  4.0  C/2012 Y1 (LINEAR)                                       MPC 83521
    CK12Y030  2012 08 22.5510  1.772798  0.936333  235.6707  122.6811   73.5327  20170616  11.0  4.0  C/2012 Y3 (McNaught)                                     MPC 83521
    CK13A010  2014 10 24.7841  1.400622  0.999665    2.4410  301.0005  129.0349  20170616   8.2  2.4  C/2013 A1 (Siding Spring)                                MPC103843
    PK13A020  2021 02 15.4690  2.183986  0.455061  134.7009  355.8094    3.3650  20170616  15.5  4.0  P/2013 A2 (Scotti)                                       MPC 84024
    PK13A76L  2012 12 14.4741  2.046378  0.685402   27.2653  145.9513  144.8354  20170616  16.0  4.0  P/2013 AL76 (Catalina)                                   MPC 82721
    CK13B020  2013 06 30.9918  3.743091  1.001104  156.5409  331.9752   43.4637  20170616  11.0  4.0  C/2013 B2 (Catalina)                                     MPC 87915
    CK13C020  2015 09  5.7918  9.134663  0.431428  309.0683  247.5315   21.3368  20170616   4.0  4.0  C/2013 C2 (Tenagra)                                      MPC105235
    PK13CC9U  2018 06 24.3719  0.798029  0.722602  211.9280   46.2285   12.1554  20170616  18.0  2.0  P/2013 CU129 (PANSTARRS)                                 MPC 86642
    CK13D010  2013 04 14.2014  2.465004  0.781862  252.8106  294.9345   10.0782  20170616  14.0  4.0  C/2013 D1 (Holvorcem)                                    MPC 84024
    CK13E010  2013 06 15.5409  7.797142  0.999802  311.7239  134.0441  158.7266  20170616   5.5  4.0  C/2013 E1 (McNaught)                                     MPC 90270
    CK13E020  2013 03  9.8017  1.405398  0.993610   95.6489  182.4981   21.8706  20170616  11.5  4.0  C/2013 E2 (Iwamoto)                                      MPC 88327
    PK13E90W  2021 02 15.8879  3.308622  0.195672  346.5047  160.3365   31.8013  20170616  12.0  4.0  P/2013 EW90 (Tenagra)                                    MPC 88695
    CK13F010  2012 12  1.4475  1.865806  1.002333   92.0671   30.0551   79.5860  20170616  13.0  4.0  C/2013 F1 (Boattini)                                     MPC 84626
    CK13F020  2013 04 18.1306  6.231351  0.993746  123.1339  344.2713   61.7836  20170616   7.0  4.0  C/2013 F2 (Catalina)                                     MPC 88695
    CK13F030  2013 05 24.9801  2.252606  0.996114   18.7301  266.0366   85.5292  20170616  12.0  4.0  C/2013 F3 (McNaught)                                     MPC 84933
    PK13G010  2013 12 11.2542  3.348201  0.513142   51.1818  221.4430    5.4736  20170616  11.0  4.0  P/2013 G1 (Kowalski)                                     MPC 91612
    CK13G020  2012 12  6.1543  2.150588  0.999971  293.8182  273.9950   95.9340  20170616  11.5  4.0  C/2013 G2 (McNaught)                                     MPC 84933
    CK13G030  2014 11 15.5424  3.851846  1.001609   76.5231  208.1086   64.6839  20170616   9.0  4.0  C/2013 G3 (PANSTARRS)                                    MPC102950
    PK13G040  2013 02 11.2772  2.613475  0.410872  214.6332  339.7315    5.9219  20170616  15.0  4.0  P/2013 G4 (PANSTARRS)                                    MPC 84025
    CK13G050  2013 09  1.3994  0.924876  0.999795  165.6435  144.1654   40.6427  20170616  14.0  4.0  C/2013 G5 (Catalina)                                     MPC 84318
    CK13G060  2013 07 25.2922  2.053195  0.994656  215.7752   44.5480  124.1420  20170616  13.5  4.0  C/2013 G6 (Lemmon)                                       MPC 87478
    CK13G070  2014 03 19.2609  4.681928  0.997588  218.3442   48.3583  105.1125  20170616   7.5  4.0  C/2013 G7 (McNaught)                                     MPC 95209
    CK13G080  2013 11 14.3929  5.134959  0.997293   80.0907  240.9774   27.6416  20170616   8.5  4.0  C/2013 G8 (PANSTARRS)                                    MPC 95209
    CK13G090  2015 01 15.4875  5.341761  0.999973  205.1059   35.7420  146.2533  20170616   7.0  4.0  C/2013 G9 (Tenagra)                                      MPC 10027
    CK13H010  2013 05 20.2663  2.648085  0.986680  136.7189   84.8654   27.0715  20170616  13.0  4.0  C/2013 H1 (La Sagra)                                     MPC 84933
    CK13H020  2014 01 23.4398  7.504329  0.998671   36.0323  262.7010  128.3895  20170616   6.5  4.0  C/2013 H2 (Boattini)                                     MPC 94670
    PK13J020  2013 08 22.5814  2.145407  0.655663   37.8023  289.3956   15.5089  20170616  13.0  4.0  P/2013 J2 (McNaught)                                     MPC 91613
    CK13J030  2013 02 21.7621  3.997546  0.996041  321.0117  200.7428  118.2043  20170616  10.0  4.0  C/2013 J3 (McNaught)                                     MPC 87916
    PK13J040  2013 11  4.2199  1.903367  0.230994  118.7706   84.0011    5.0352            14.0  4.0  P/2013 J4 (PANSTARRS)                                    MPC 87066
    CK13J050  2012 11 28.7138  4.913261  0.996239   19.1546  256.7099  136.0213  20170616  10.0  4.0  C/2013 J5 (Boattini)                                     MPC 84319
    CK13J060  2013 04  9.1518  2.417800  0.959421  125.6567   68.3196   84.9986  20170616  14.5  4.0  C/2013 J6 (Catalina)                                     MPC 84627
    CK13K010  2013 05 30.2650  0.943883  0.987649  171.2951  125.8110   42.4127  20170616  18.0  4.0  C/2013 K1 (Christensen)                                  MPC 84319
    CK13L020  2012 05  9.4458  4.868341  0.998533    1.7899  285.7948  106.7892  20170616   8.0  4.0  C/2013 L2 (Catalina)                                     MPC 87916
    PK13N030  2014 02 11.1738  3.024441  0.591320  323.8172   17.6558    2.1707  20170616  13.0  4.0  P/2013 N3 (PANSTARRS)                                    MPC 86229
    CK13N040  2013 08 20.6347  1.217025  0.974545  142.3785  322.6353   37.0273  20170616  12.0  4.0  C/2013 N4 (Borisov)                                      MPC 88328
    PK13N050  2013 06 29.8315  1.837660  0.730227  176.9530  187.2218   23.3486  20170616  17.0  4.0  P/2013 N5 (PANSTARRS)                                    MPC 85834
    PK13O020  2013 12 16.0745  2.131114  0.441185  213.3531  207.5691   13.3455  20170616  14.0  4.0  P/2013 O2 (PANSTARRS)                                    MPC 87479
    CK13O030  2013 09  9.3475  3.179052  0.995152  337.8817  276.6774  102.8286  20170616  11.5  4.0  C/2013 O3 (McNaught)                                     MPC 90767
    PK13P010  2013 02 25.9565  3.379532  0.605200  137.8815  160.7830   18.7066  20170616  12.0  4.0  P/2013 P1 (PANSTARRS)                                    MPC 85834
    CK13P020  2014 02 15.7622  2.837861  0.996195  104.9656    2.0687  125.6227  20170616  11.5  4.0  C/2013 P2 (PANSTARRS)                                    MPC 93584
    CK13P030  2014 11 21.8500  8.642891  1.000587  177.0744  177.2723   93.9158  20170616   5.5  4.0  C/2013 P3 (Palomar)                                      MPC102094
    CK13P040  2014 08 10.4200  5.962868  0.593986  113.4291  256.5834    4.2694  20170616   7.5  4.0  C/2013 P4 (PANSTARRS)                                    MPC 96865
    CK13P67E  2013 12  6.3568  1.873400  0.963886   59.9133  325.9544  116.6877  20170616  14.0  4.0  C/2013 PE67 (Catalina-Spacewatch)                        MPC 88696
    CK13R010  2013 12 22.4358  0.813320  0.998417   67.2353   70.6233   63.9069  20170616   7.0  4.0  C/2013 R1 (Lovejoy)                                      MPC102950
    PK13R030  2018 12  5.8528  2.202844  0.274434   10.7391  342.1608    0.8657  20170616  14.0  4.0  P/2013 R3 (Catalina-PANSTARRS)                           MPC 94671
    PK13R03a  2018 12  5.7310  2.202833  0.274403   10.7785  342.1275    0.8651  20170616   9.0  4.0  P/2013 R3-A (Catalina-PANSTARRS)                         unp
    PK13R03b  2018 12  5.9176  2.202855  0.274449   10.7128  342.1835    0.8664  20170616   9.0  4.0  P/2013 R3-B (Catalina-PANSTARRS)                         MPEC 2015-M77
